{
  "norad_id": 56833,
  "name": "STARLINK-30131",
  "history": [
    {
      "epoch": "2026-03-28T17:01:48.220896Z",
      "apogee_km": 502.0681833475501,
      "perigee_km": 500.1805140334709,
      "latitude_deg": 2.7857895241645838e-05,
      "longitude_deg": -107.0488263145855,
      "height_km": 501.22227488198115,
      "semi_major_axis_km": 6879.26134869051,
      "eccentricity": 0.0001372,
      "inclination_deg": 43.0037,
      "raan_deg": 334.5282,
      "arg_perigee_deg": 250.1584,
      "mean_anomaly_deg": 109.9118,
      "mean_motion_rev_day": 15.21563384
    },
    {
      "epoch": "2026-03-29T00:54:26.669088Z",
      "apogee_km": 501.9810794269297,
      "perigee_km": 500.1938569101003,
      "latitude_deg": 2.7696780327039323e-05,
      "longitude_deg": 132.62866148750194,
      "height_km": 501.15385397717637,
      "semi_major_axis_km": 6879.224468168515,
      "eccentricity": 0.0001299,
      "inclination_deg": 43.0016,
      "raan_deg": 332.6894,
      "arg_perigee_deg": 251.1242,
      "mean_anomaly_deg": 108.9467,
      "mean_motion_rev_day": 15.2157562
    },
    {
      "epoch": "2026-03-30T00:32:19.926240Z",
      "apogee_km": 501.90587108467844,
      "perigee_km": 499.8652778281912,
      "latitude_deg": 3.3594237939376115e-06,
      "longitude_deg": 131.67892165922805,
      "height_km": 500.98041701077705,
      "semi_major_axis_km": 6879.022574456434,
      "eccentricity": 0.00014832,
      "inclination_deg": 43.002,
      "raan_deg": 327.1821,
      "arg_perigee_deg": 251.8772,
      "mean_anomaly_deg": 108.1916,
      "mean_motion_rev_day": 15.21642606
    },
    {
      "epoch": "2026-03-30T08:24:57.001536Z",
      "apogee_km": 501.9000544530909,
      "perigee_km": 499.7696368724901,
      "latitude_deg": 1.743832740071212e-06,
      "longitude_deg": 11.3635444432665,
      "height_km": 500.94600964856056,
      "semi_major_axis_km": 6878.971845662791,
      "eccentricity": 0.00015485,
      "inclination_deg": 43.002,
      "raan_deg": 325.3447,
      "arg_perigee_deg": 251.7467,
      "mean_anomaly_deg": 108.3214,
      "mean_motion_rev_day": 15.21659438
    },
    {
      "epoch": "2026-03-30T22:35:39.017184Z",
      "apogee_km": 501.8013028882024,
      "perigee_km": 499.689485993109,
      "latitude_deg": 4.960777762681701e-06,
      "longitude_deg": 154.8003997186133,
      "height_km": 500.824644413182,
      "semi_major_axis_km": 6878.882394440656,
      "eccentricity": 0.0001535,
      "inclination_deg": 43.0016,
      "raan_deg": 322.0389,
      "arg_perigee_deg": 253.3937,
      "mean_anomaly_deg": 106.6744,
      "mean_motion_rev_day": 15.21689119
    },
    {
      "epoch": "2026-03-31T00:10:10.299360Z",
      "apogee_km": 501.79800215551404,
      "perigee_km": 499.6753193212826,
      "latitude_deg": 1.3328288350158168e-05,
      "longitude_deg": 130.73826874067478,
      "height_km": 500.812247082325,
      "semi_major_axis_km": 6878.873660738398,
      "eccentricity": 0.00015429,
      "inclination_deg": 43.0018,
      "raan_deg": 321.6718,
      "arg_perigee_deg": 253.689,
      "mean_anomaly_deg": 106.379,
      "mean_motion_rev_day": 15.21692017
    },
    {
      "epoch": "2026-03-31T23:47:58.519392Z",
      "apogee_km": 501.7184726510968,
      "perigee_km": 499.56046289762617,
      "latitude_deg": -3.625896489023592e-05,
      "longitude_deg": 129.8062483162427,
      "height_km": 500.71051629198115,
      "semi_major_axis_km": 6878.776467774362,
      "eccentricity": 0.00015686,
      "inclination_deg": 43.0013,
      "raan_deg": 316.1612,
      "arg_perigee_deg": 254.2122,
      "mean_anomaly_deg": 105.8554,
      "mean_motion_rev_day": 15.21724268
    },
    {
      "epoch": "2026-04-02T15:10:54.096384Z",
      "apogee_km": 501.56891674849976,
      "perigee_km": 499.3116428283647,
      "latitude_deg": 4.493648199119363e-05,
      "longitude_deg": -111.72909977964163,
      "height_km": 500.4727053069079,
      "semi_major_axis_km": 6878.577279788432,
      "eccentricity": 0.00016408,
      "inclination_deg": 43.001,
      "raan_deg": 306.9747,
      "arg_perigee_deg": 256.9463,
      "mean_anomaly_deg": 103.1204,
      "mean_motion_rev_day": 15.21790367
    },
    {
      "epoch": "2026-04-03T14:48:35.764704Z",
      "apogee_km": 501.3940132867174,
      "perigee_km": 499.14477439593065,
      "latitude_deg": -3.215058448657793e-05,
      "longitude_deg": -112.63447716097474,
      "height_km": 500.31216488510876,
      "semi_major_axis_km": 6878.406393841324,
      "eccentricity": 0.0001635,
      "inclination_deg": 43.0017,
      "raan_deg": 301.4634,
      "arg_perigee_deg": 256.3608,
      "mean_anomaly_deg": 103.7059,
      "mean_motion_rev_day": 15.21847078
    },
    {
      "epoch": "2026-04-04T14:26:14.752032Z",
      "apogee_km": 501.29578740355737,
      "perigee_km": 498.9901879516874,
      "latitude_deg": -3.276930135159472e-05,
      "longitude_deg": -113.52967242428126,
      "height_km": 500.1547799723338,
      "semi_major_axis_km": 6878.279987677623,
      "eccentricity": 0.0001676,
      "inclination_deg": 42.9998,
      "raan_deg": 295.951,
      "arg_perigee_deg": 258.269,
      "mean_anomaly_deg": 101.7971,
      "mean_motion_rev_day": 15.2188903
    },
    {
      "epoch": "2026-04-05T14:03:51.639840Z",
      "apogee_km": 501.1956338967557,
      "perigee_km": 498.8845663911088,
      "latitude_deg": -7.644676552209297e-07,
      "longitude_deg": -114.4160617700591,
      "height_km": 499.98374947622705,
      "semi_major_axis_km": 6878.177100143932,
      "eccentricity": 0.000168,
      "inclination_deg": 42.9999,
      "raan_deg": 290.4386,
      "arg_perigee_deg": 261.73,
      "mean_anomaly_deg": 98.3359,
      "mean_motion_rev_day": 15.21923178
    },
    {
      "epoch": "2026-04-05T14:03:51.640704Z",
      "apogee_km": 501.1958402420696,
      "perigee_km": 498.8843600457949,
      "latitude_deg": 1.5807556492597555e-06,
      "longitude_deg": -114.41606287884457,
      "height_km": 499.98377915138497,
      "semi_major_axis_km": 6878.177100143932,
      "eccentricity": 0.00016803,
      "inclination_deg": 42.9999,
      "raan_deg": 290.4386,
      "arg_perigee_deg": 261.73,
      "mean_anomaly_deg": 98.3359,
      "mean_motion_rev_day": 15.21923178
    },
    {
      "epoch": "2026-04-07T13:19:00.231456Z",
      "apogee_km": 501.1136168713456,
      "perigee_km": 498.6153891654194,
      "latitude_deg": -9.530857409233558e-06,
      "longitude_deg": -116.16656092856633,
      "height_km": 499.80076548654006,
      "semi_major_axis_km": 6878.001503018382,
      "eccentricity": 0.00018161,
      "inclination_deg": 43.0013,
      "raan_deg": 279.4145,
      "arg_perigee_deg": 262.7072,
      "mean_anomaly_deg": 97.3571,
      "mean_motion_rev_day": 15.21981461
    },
    {
      "epoch": "2026-04-08T12:56:32.103744Z",
      "apogee_km": 501.0501477963853,
      "perigee_km": 498.51219599095657,
      "latitude_deg": 4.662768756916284e-06,
      "longitude_deg": -117.03181559553069,
      "height_km": 499.6686119643753,
      "semi_major_axis_km": 6877.918171893671,
      "eccentricity": 0.0001845,
      "inclination_deg": 43.001,
      "raan_deg": 273.9023,
      "arg_perigee_deg": 265.0388,
      "mean_anomaly_deg": 95.0251,
      "mean_motion_rev_day": 15.22009121
    },
    {
      "epoch": "2026-04-09T20:26:32.204832Z",
      "apogee_km": 500.97263027659665,
      "perigee_km": 498.3631910934828,
      "latitude_deg": 4.5522608268654394e-05,
      "longitude_deg": 121.82444269300547,
      "height_km": 499.4948011846948,
      "semi_major_axis_km": 6877.804910685039,
      "eccentricity": 0.0001897,
      "inclination_deg": 43.0009,
      "raan_deg": 266.5526,
      "arg_perigee_deg": 267.8407,
      "mean_anomaly_deg": 92.2226,
      "mean_motion_rev_day": 15.22046717
    },
    {
      "epoch": "2026-04-10T12:11:31.143840Z",
      "apogee_km": 500.9268741425467,
      "perigee_km": 498.28582069713866,
      "latitude_deg": 2.763110181327976e-05,
      "longitude_deg": -118.7429746421862,
      "height_km": 499.41151271804733,
      "semi_major_axis_km": 6877.743347419842,
      "eccentricity": 0.000192,
      "inclination_deg": 43.0009,
      "raan_deg": 262.8776,
      "arg_perigee_deg": 268.8105,
      "mean_anomaly_deg": 91.2525,
      "mean_motion_rev_day": 15.22067153
    },
    {
      "epoch": "2026-04-11T19:41:26.887776Z",
      "apogee_km": 500.7963070771284,
      "perigee_km": 498.191060574095,
      "latitude_deg": -1.2078374330448178e-06,
      "longitude_deg": 120.13071527380266,
      "height_km": 499.35688207537004,
      "semi_major_axis_km": 6877.630683825611,
      "eccentricity": 0.0001894,
      "inclination_deg": 43.0006,
      "raan_deg": 255.5272,
      "arg_perigee_deg": 266.2361,
      "mean_anomaly_deg": 93.8272,
      "mean_motion_rev_day": 15.22104553
    },
    {
      "epoch": "2026-04-13T03:11:20.012928Z",
      "apogee_km": 500.80317422465396,
      "perigee_km": 497.98311176482093,
      "latitude_deg": 5.09241553392568e-05,
      "longitude_deg": -0.9858652476733046,
      "height_km": 499.27004220321425,
      "semi_major_axis_km": 6877.530142994738,
      "eccentricity": 0.00020502,
      "inclination_deg": 43.0014,
      "raan_deg": 248.1755,
      "arg_perigee_deg": 265.9732,
      "mean_anomaly_deg": 94.0884,
      "mean_motion_rev_day": 15.2213793
    },
    {
      "epoch": "2026-04-14T16:59:08.804256Z",
      "apogee_km": 500.70975001735496,
      "perigee_km": 497.8679976462872,
      "latitude_deg": 6.357394339642617e-06,
      "longitude_deg": 141.687828634563,
      "height_km": 499.03533813035625,
      "semi_major_axis_km": 6877.42587383182,
      "eccentricity": 0.0002066,
      "inclination_deg": 43.001,
      "raan_deg": 239.3548,
      "arg_perigee_deg": 271.2666,
      "mean_anomaly_deg": 88.7947,
      "mean_motion_rev_day": 15.22172546
    }
  ]
}